[{"OBJECT_NAME":"EYESAT A (AO-27)","OBJECT_ID":"1993-061C","EPOCH":"2026-03-09T16:58:07.157856","MEAN_MOTION":14.30913089,"ECCENTRICITY":0.00089503,"INCLINATION":98.6982,"RA_OF_ASC_NODE":136.1171,"ARG_OF_PERICENTER":38.8989,"MEAN_ANOMALY":321.2837,"EPHEMERIS_TYPE":0,"CLASSIFICATION_TYPE":"U","NORAD_CAT_ID":22825,"ELEMENT_SET_NO":999,"REV_AT_EPOCH":69277,"BSTAR":7.1797441e-5,"MEAN_MOTION_DOT":1.44e-6,"MEAN_MOTION_DDOT":0},{"OBJECT_NAME":"CZ-6A DEB","OBJECT_ID":"2024-140HD","EPOCH":"2026-03-09T14:34:52.210272","MEAN_MOTION":14.25891673,"ECCENTRICITY":0.0031604,"INCLINATION":88.9706,"RA_OF_ASC_NODE":283.6316,"ARG_OF_PERICENTER":90.6286,"MEAN_ANOMALY":269.8529,"EPHEMERIS_TYPE":0,"CLASSIFICATION_TYPE":"U","NORAD_CAT_ID":60826,"ELEMENT_SET_NO":999,"REV_AT_EPOCH":8164,"BSTAR":0.00059406,"MEAN_MOTION_DOT":1.436e-5,"MEAN_MOTION_DDOT":0}]
